start=new Date('2022-11-27T00:00:00.000Z').valueOf();
sats=[{"SEMIMAJOR_AXIS":"6925.314","OBJECT_TYPE":"PAYLOAD","DECAY_DATE":null,"MEAN_MOTION":"15.06411435","TIME_SYSTEM":"UTC","RA_OF_ASC_NODE":"74.2279","RCS_SIZE":"LARGE","BSTAR":"0.00010091000000","EPHEMERIS_TYPE":"0","INCLINATION":"53.0557","CENTER_NAME":"EARTH","OBJECT_ID":"2021-036AL","MEAN_MOTION_DOT":"0.00001222","ARG_OF_PERICENTER":"49.1282","OBJECT_NAME":"STARLINK-2536","REV_AT_EPOCH":"8745","TLE_LINE2":"2 48310  53.0557  74.2279 0001601  49.1282 310.9845 15.06411435 87452","ELEMENT_SET_NO":"999","ECCENTRICITY":"0.00016010","MEAN_MOTION_DDOT":"0.0000000000000","PERIAPSIS":"546.070","REF_FRAME":"TEME","EPOCH":"2022-11-26T16:07:50.219328","TLE_LINE1":"1 48310U 21036AL  22330.67210902  .00001222  00000-0  10091-3 0  9996","NORAD_CAT_ID":"48310","SITE":"AFETR","FILE":"3671048","LAUNCH_DATE":"2021-04-29","CLASSIFICATION_TYPE":"U","GP_ID":"218892656","COUNTRY_CODE":"US","MEAN_ANOMALY":"310.9845","PERIOD":"95.591","APOAPSIS":"548.287","MEAN_ELEMENT_THEORY":"SGP4"},{"RA_OF_ASC_NODE":"73.9338","RCS_SIZE":"LARGE","BSTAR":"0.00012221000000","EPHEMERIS_TYPE":"0","INCLINATION":"53.0557","CENTER_NAME":"EARTH","OBJECT_ID":"2021-036AM","SEMIMAJOR_AXIS":"6925.362","OBJECT_TYPE":"PAYLOAD","DECAY_DATE":null,"MEAN_MOTION":"15.06395716","TIME_SYSTEM":"UTC","NORAD_CAT_ID":"48311","SITE":"AFETR","FILE":"3671048","LAUNCH_DATE":"2021-04-29","CLASSIFICATION_TYPE":"U","COUNTRY_CODE":"US","GP_ID":"218892406","MEAN_ANOMALY":"279.6248","APOAPSIS":"548.083","PERIOD":"95.592","MEAN_ELEMENT_THEORY":"SGP4","MEAN_MOTION_DOT":"0.00001539","ARG_OF_PERICENTER":"80.4881","OBJECT_NAME":"STARLINK-2534","REV_AT_EPOCH":"8746","TLE_LINE2":"2 48311  53.0557  73.9338 0001236  80.4881 279.6248 15.06395716 87464","ECCENTRICITY":"0.00012360","ELEMENT_SET_NO":"999","MEAN_MOTION_DDOT":"0.0000000000000","PERIAPSIS":"546.371","REF_FRAME":"TEME","EPOCH":"2022-11-26T17:38:05.323776","TLE_LINE1":"1 48311U 21036AM  22330.73478384  .00001539  00000-0  12221-3 0  9992"},{"DECAY_DATE":null,"MEAN_MOTION":"15.06397615","TIME_SYSTEM":"UTC","SEMIMAJOR_AXIS":"6925.356","OBJECT_TYPE":"PAYLOAD","BSTAR":"0.00004663700000","EPHEMERIS_TYPE":"0","RA_OF_ASC_NODE":"73.9595","RCS_SIZE":"LARGE","CENTER_NAME":"EARTH","OBJECT_ID":"2021-036AN","INCLINATION":"53.0548","TLE_LINE2":"2 48312  53.0548  73.9595 0001391  65.9217 294.1917 15.06397615 87468","ELEMENT_SET_NO":"999","ECCENTRICITY":"0.00013910","PERIAPSIS":"546.258","MEAN_MOTION_DDOT":"0.0000000000000","REF_FRAME":"TEME","MEAN_MOTION_DOT":"0.00000413","ARG_OF_PERICENTER":"65.9217","OBJECT_NAME":"STARLINK-2061","REV_AT_EPOCH":"8746","TLE_LINE1":"1 48312U 21036AN  22330.73108575  .00000413  00000-0  46637-4 0  9994","EPOCH":"2022-11-26T17:32:45.808800","NORAD_CAT_ID":"48312","SITE":"AFETR","MEAN_ANOMALY":"294.1917","APOAPSIS":"548.184","MEAN_ELEMENT_THEORY":"SGP4","PERIOD":"95.592","LAUNCH_DATE":"2021-04-29","FILE":"3671048","CLASSIFICATION_TYPE":"U","GP_ID":"218891155","COUNTRY_CODE":"US"},{"EPHEMERIS_TYPE":"0","BSTAR":"-0.00037905000000","RCS_SIZE":"LARGE","RA_OF_ASC_NODE":"74.2791","OBJECT_ID":"2021-036AP","CENTER_NAME":"EARTH","INCLINATION":"53.0561","TIME_SYSTEM":"UTC","MEAN_MOTION":"15.06431943","DECAY_DATE":null,"OBJECT_TYPE":"PAYLOAD","SEMIMAJOR_AXIS":"6925.251","SITE":"AFETR","NORAD_CAT_ID":"48313","APOAPSIS":"547.839","MEAN_ELEMENT_THEORY":"SGP4","PERIOD":"95.590","MEAN_ANOMALY":"265.8533","GP_ID":"218891905","COUNTRY_CODE":"US","CLASSIFICATION_TYPE":"U","FILE":"3671048","LAUNCH_DATE":"2021-04-29","PERIAPSIS":"546.393","MEAN_MOTION_DDOT":"0.0000000000000","REF_FRAME":"TEME","ECCENTRICITY":"0.00010440","ELEMENT_SET_NO":"999","TLE_LINE2":"2 48313  53.0561  74.2791 0001044  94.2575 265.8533 15.06431943 87443","REV_AT_EPOCH":"8744","OBJECT_NAME":"STARLINK-2541","ARG_OF_PERICENTER":"94.2575","MEAN_MOTION_DOT":"-0.00005928","TLE_LINE1":"1 48313U 21036AP  22330.66106090 -.00005928  00000-0 -37905-3 0  9992","EPOCH":"2022-11-26T15:51:55.661760"},{"DECAY_DATE":null,"TIME_SYSTEM":"UTC","MEAN_MOTION":"15.06406453","SEMIMAJOR_AXIS":"6925.329","OBJECT_TYPE":"PAYLOAD","CENTER_NAME":"EARTH","OBJECT_ID":"2021-036AQ","INCLINATION":"53.0560","EPHEMERIS_TYPE":"0","BSTAR":"0.00005641200000","RCS_SIZE":"LARGE","RA_OF_ASC_NODE":"73.9954","TLE_LINE1":"1 48314U 21036AQ  22330.72371000  .00000559  00000-0  56412-4 0  9993","EPOCH":"2022-11-26T17:22:08.544000","ECCENTRICITY":"0.00013660","ELEMENT_SET_NO":"999","TLE_LINE2":"2 48314  53.0560  73.9954 0001366  86.8380 273.2765 15.06406453 87457","PERIAPSIS":"546.248","REF_FRAME":"TEME","MEAN_MOTION_DDOT":"0.0000000000000","ARG_OF_PERICENTER":"86.8380","MEAN_MOTION_DOT":"0.00000559","REV_AT_EPOCH":"8745","OBJECT_NAME":"STARLINK-2549","MEAN_ANOMALY":"273.2765","APOAPSIS":"548.140","PERIOD":"95.592","MEAN_ELEMENT_THEORY":"SGP4","LAUNCH_DATE":"2021-04-29","FILE":"3671048","COUNTRY_CODE":"US","GP_ID":"218892157","CLASSIFICATION_TYPE":"U","SITE":"AFETR","NORAD_CAT_ID":"48314"},{"TLE_LINE1":"1 48315U 21036AR  22330.65273344  .00000334  00000-0  41318-4 0  9998","EPOCH":"2022-11-26T15:39:56.169216","TLE_LINE2":"2 48315  53.0553  74.2875 0001394  80.6299 279.4847 15.06405979 87448","ECCENTRICITY":"0.00013940","ELEMENT_SET_NO":"999","REF_FRAME":"TEME","PERIAPSIS":"546.230","MEAN_MOTION_DDOT":"0.0000000000000","MEAN_MOTION_DOT":"0.00000334","ARG_OF_PERICENTER":"80.6299","OBJECT_NAME":"STARLINK-2506","REV_AT_EPOCH":"8744","MEAN_ANOMALY":"279.4847","MEAN_ELEMENT_THEORY":"SGP4","APOAPSIS":"548.161","PERIOD":"95.592","FILE":"3671048","LAUNCH_DATE":"2021-04-29","CLASSIFICATION_TYPE":"U","COUNTRY_CODE":"US","GP_ID":"218892906","NORAD_CAT_ID":"48315","SITE":"AFETR","DECAY_DATE":null,"MEAN_MOTION":"15.06405979","TIME_SYSTEM":"UTC","SEMIMAJOR_AXIS":"6925.330","OBJECT_TYPE":"PAYLOAD","CENTER_NAME":"EARTH","OBJECT_ID":"2021-036AR","INCLINATION":"53.0553","BSTAR":"0.00004131800000","EPHEMERIS_TYPE":"0","RA_OF_ASC_NODE":"74.2875","RCS_SIZE":"LARGE"},{"MEAN_ANOMALY":"272.3378","APOAPSIS":"548.058","MEAN_ELEMENT_THEORY":"SGP4","PERIOD":"95.591","LAUNCH_DATE":"2021-04-29","FILE":"3671048","COUNTRY_CODE":"US","GP_ID":"218891655","CLASSIFICATION_TYPE":"U","SITE":"AFETR","NORAD_CAT_ID":"48316","TLE_LINE1":"1 48316U 21036AS  22330.78268576 -.00001644  00000-0 -91447-4 0  9999","EPOCH":"2022-11-26T18:47:04.049664","ECCENTRICITY":"0.00012800","ELEMENT_SET_NO":"999","TLE_LINE2":"2 48316  53.0556  73.7161 0001280  87.7757 272.3378 15.06413686 87462","MEAN_MOTION_DDOT":"0.0000000000000","PERIAPSIS":"546.285","REF_FRAME":"TEME","ARG_OF_PERICENTER":"87.7757","MEAN_MOTION_DOT":"-0.00001644","REV_AT_EPOCH":"8746","OBJECT_NAME":"STARLINK-2507","CENTER_NAME":"EARTH","OBJECT_ID":"2021-036AS","INCLINATION":"53.0556","EPHEMERIS_TYPE":"0","BSTAR":"-0.00009144700000","RCS_SIZE":"LARGE","RA_OF_ASC_NODE":"73.7161","DECAY_DATE":null,"TIME_SYSTEM":"UTC","MEAN_MOTION":"15.06413686","SEMIMAJOR_AXIS":"6925.307","OBJECT_TYPE":"PAYLOAD"},{"TLE_LINE1":"1 48317U 21036AT  22330.71265989  .00000644  00000-0  62096-4 0  9993","EPOCH":"2022-11-26T17:06:13.814496","ECCENTRICITY":"0.00013840","ELEMENT_SET_NO":"999","TLE_LINE2":"2 48317  53.0548  74.0287 0001384  79.4675 280.6470 15.06403404 87450","REF_FRAME":"TEME","PERIAPSIS":"546.245","MEAN_MOTION_DDOT":"0.0000000000000","ARG_OF_PERICENTER":"79.4675","MEAN_MOTION_DOT":"0.00000644","REV_AT_EPOCH":"8745","OBJECT_NAME":"STARLINK-2513","MEAN_ANOMALY":"280.6470","APOAPSIS":"548.162","MEAN_ELEMENT_THEORY":"SGP4","PERIOD":"95.592","LAUNCH_DATE":"2021-04-29","FILE":"3671048","COUNTRY_CODE":"US","GP_ID":"218891406","CLASSIFICATION_TYPE":"U","SITE":"AFETR","NORAD_CAT_ID":"48317","DECAY_DATE":null,"TIME_SYSTEM":"UTC","MEAN_MOTION":"15.06403404","SEMIMAJOR_AXIS":"6925.338","OBJECT_TYPE":"PAYLOAD","CENTER_NAME":"EARTH","OBJECT_ID":"2021-036AT","INCLINATION":"53.0548","EPHEMERIS_TYPE":"0","BSTAR":"0.00006209600000","RCS_SIZE":"LARGE","RA_OF_ASC_NODE":"74.0287"},{"ELEMENT_SET_NO":"999","ECCENTRICITY":"0.00013560","TLE_LINE2":"2 48318  53.0557  84.3834 0001356  64.8639 295.2491 15.06377664 87307","PERIAPSIS":"546.343","MEAN_MOTION_DDOT":"0.0000000000000","REF_FRAME":"TEME","ARG_OF_PERICENTER":"64.8639","MEAN_MOTION_DOT":"0.00000781","REV_AT_EPOCH":"8730","OBJECT_NAME":"STARLINK-2509","TLE_LINE1":"1 48318U 21036AU  22330.63804098  .00000781  00000-0  71365-4 0  9996","EPOCH":"2022-11-26T15:18:46.740672","SITE":"AFETR","NORAD_CAT_ID":"48318","MEAN_ANOMALY":"295.2491","APOAPSIS":"548.221","PERIOD":"95.594","MEAN_ELEMENT_THEORY":"SGP4","LAUNCH_DATE":"2021-04-29","FILE":"3671048","COUNTRY_CODE":"US","GP_ID":"218892657","CLASSIFICATION_TYPE":"U","DECAY_DATE":null,"TIME_SYSTEM":"UTC","MEAN_MOTION":"15.06377664","SEMIMAJOR_AXIS":"6925.417","OBJECT_TYPE":"PAYLOAD","EPHEMERIS_TYPE":"0","BSTAR":"0.00007136500000","RCS_SIZE":"LARGE","RA_OF_ASC_NODE":"84.3834","CENTER_NAME":"EARTH","OBJECT_ID":"2021-036AU","INCLINATION":"53.0557"},{"DECAY_DATE":null,"MEAN_MOTION":"15.06401641","TIME_SYSTEM":"UTC","SEMIMAJOR_AXIS":"6925.344","OBJECT_TYPE":"PAYLOAD","CENTER_NAME":"EARTH","OBJECT_ID":"2021-036AV","INCLINATION":"53.0559","BSTAR":"0.00006063500000","EPHEMERIS_TYPE":"0","RA_OF_ASC_NODE":"83.5010","RCS_SIZE":"LARGE","TLE_LINE1":"1 48319U 21036AV  22330.83242430  .00000622  00000-0  60635-4 0  9997","EPOCH":"2022-11-26T19:58:41.459520","TLE_LINE2":"2 48319  53.0559  83.5010 0001307  76.9529 283.1605 15.06401641 87334","ECCENTRICITY":"0.00013070","ELEMENT_SET_NO":"999","MEAN_MOTION_DDOT":"0.0000000000000","PERIAPSIS":"546.303","REF_FRAME":"TEME","MEAN_MOTION_DOT":"0.00000622","ARG_OF_PERICENTER":"76.9529","OBJECT_NAME":"STARLINK-2512","REV_AT_EPOCH":"8733","MEAN_ANOMALY":"283.1605","PERIOD":"95.592","APOAPSIS":"548.114","MEAN_ELEMENT_THEORY":"SGP4","FILE":"3671048","LAUNCH_DATE":"2021-04-29","CLASSIFICATION_TYPE":"U","GP_ID":"218892407","COUNTRY_CODE":"US","NORAD_CAT_ID":"48319","SITE":"AFETR"}];
